*******************************************************************************
 Revised: April 22, 2021              Neptune                               899
 
 PHYSICAL DATA (update 2021-May-03):
  Mass x10^24 (kg)      = 102.409         Density (g/cm^3)       =  1.638
  Equat. radius (1 bar) = 24766+-15 km    Volume, 10^10 km^3     = 6254     
  Vol. mean radius (km) = 24624+-21       Polar radius (km)      = 24342+-30
  Geometric Albedo      = 0.41            Flattening             =  0.0171
  Sid. rot. period (III)= 16.11+-0.01 hr  Sid. rot. rate (rad/s) =  0.000108338 
  Mean solar day, h     =~16.11 h         
  GM (km^3/s^2)         = 6835099.97      GM 1-sigma (km^3/s^2)  = +-10 
  Equ. grav, ge (m/s^2) = 11.15           Pol. grav, gp (m/s^2)  = 11.41+-0.03
  Visual magnitude V(1,0)= -6.87
  Vis. mag. (opposition)=  +7.84          Obliquity to orbit     = 28.32 deg
  Sidereal orbit period = 164.788501027 y Sidereal orbit period  = 60189 d
  Mean daily motion     = 0.006020076dg/d Mean orbit velocity    =  5.43 km/s 
  Atmos. temp. (1 bar)  =  72+-2 K        Escape speed (1 bar)  =  23.5 km/s     
  Aroche(ice)/Rp        =  2.98           Hill's sphere rad., Rp = 4700
                                 Perihelion  Aphelion    Mean
  Solar Constant (W/m^2)         1.54        1.49        1.51
  Maximum Planetary IR (W/m^2)   0.52        0.52        0.52
  Minimum Planetary IR (W/m^2)   0.52        0.52        0.52
*******************************************************************************


*******************************************************************************
Ephemeris / WWW_USER Sun Nov 14 18:27:01 2021 Pasadena, USA      / Horizons
*******************************************************************************
Target body name: Neptune (899)                   {source: nep097}
Center body name: Sun (10)                        {source: DE441}
Center-site name: BODY CENTER
*******************************************************************************
Start time      : A.D. 1900-Jan-01 00:00:00.0000 TDB
Stop  time      : A.D. 2099-Jan-01 00:00:00.0000 TDB
Step-size       : 72000 minutes
*******************************************************************************
Center geodetic : 0.00000000,0.00000000,0.0000000 {E-lon(deg),Lat(deg),Alt(km)}
Center cylindric: 0.00000000,0.00000000,0.0000000 {E-lon(deg),Dxy(km),Dz(km)}
Center radii    : 696000.0 x 696000.0 x 696000.0 k{Equator, meridian, pole}    
Output units    : AU-D
Output type     : GEOMETRIC cartesian states
Output format   : 2 (position and velocity)
Reference frame : ICRF
*******************************************************************************
JDTDB
   X     Y     Z
   VX    VY    VZ
*******************************************************************************
$$SOE
2471120.500000000 = A.D. 2053-Aug-06 00:00:00.0000 TDB 
 X = 1.387030388178956E+01 Y = 2.454972642849578E+01 Z = 9.702883651601466E+00
 VX=-2.792303910089498E-03 VY= 1.341364503304940E-03 VZ= 6.182596773304879E-04
2471170.500000000 = A.D. 2053-Sep-25 00:00:00.0000 TDB 
 X = 1.373051398149238E+01 Y = 2.461647845030688E+01 Z = 9.733681853497350E+00
 VX=-2.799257389802529E-03 VY= 1.328728752667010E-03 VZ= 6.136230872577467E-04
2471220.500000000 = A.D. 2053-Nov-14 00:00:00.0000 TDB 
 X = 1.359035394243569E+01 Y = 2.468256132702603E+01 Z = 9.764214315476625E+00
 VX=-2.807175990073918E-03 VY= 1.314548330278906E-03 VZ= 6.077114084812463E-04
2471270.500000000 = A.D. 2054-Jan-03 00:00:00.0000 TDB 
 X = 1.344982397472678E+01 Y = 2.474796852811607E+01 Z = 9.794481320396391E+00
 VX=-2.813956879206066E-03 VY= 1.301740262650380E-03 VZ= 6.029146216835449E-04
2471320.500000000 = A.D. 2054-Feb-22 00:00:00.0000 TDB 
 X = 1.330893415777541E+01 Y = 2.481269817890649E+01 Z = 9.824478607693850E+00
 VX=-2.821645007269164E-03 VY= 1.287451337249141E-03 VZ= 5.970330068256759E-04
2471370.500000000 = A.D. 2054-Apr-13 00:00:00.0000 TDB 
 X = 1.316768883993249E+01 Y = 2.487675294437915E+01 Z = 9.854210446498646E+00
 VX=-2.828137553525668E-03 VY= 1.274754548782249E-03 VZ= 5.921927922523026E-04
2471420.500000000 = A.D. 2054-Jun-02 00:00:00.0000 TDB 
 X = 1.302608980191917E+01 Y = 2.494013602597212E+01 Z = 9.883675127370141E+00
 VX=-2.835862545786644E-03 VY= 1.260564266998502E-03 VZ= 5.864487949010313E-04
2471470.500000000 = A.D. 2054-Jul-22 00:00:00.0000 TDB 
 X = 1.288413345155494E+01 Y = 2.500284563109809E+01 Z = 9.912875335702314E+00
 VX=-2.842352771530065E-03 VY= 1.247797817189113E-03 VZ= 5.814927824581031E-04
2471520.500000000 = A.D. 2054-Sep-10 00:00:00.0000 TDB 
 X = 1.274182403476715E+01 Y = 2.506487705199044E+01 Z = 9.941805483192537E+00
 VX=-2.850037471223047E-03 VY= 1.233464534829569E-03 VZ= 5.757718070121003E-04
2471570.500000000 = A.D. 2054-Oct-30 00:00:00.0000 TDB 
 X = 1.259916476579223E+01 Y = 2.512622953565367E+01 Z = 9.970468405406990E+00
 VX=-2.856293489664549E-03 VY= 1.220627383315649E-03 VZ= 5.706848305573532E-04
2471620.500000000 = A.D. 2054-Dec-19 00:00:00.0000 TDB 
 X = 1.245616002057199E+01 Y = 2.518690306801064E+01 Z = 9.998860735282868E+00
 VX=-2.863930817168177E-03 VY= 1.206317774158582E-03 VZ= 5.650683532754735E-04
2471670.500000000 = A.D. 2055-Feb-07 00:00:00.0000 TDB 
 X = 1.231280805751832E+01 Y = 2.524689650616217E+01 Z = 1.002698560900994E+01
 VX=-2.870104136498240E-03 VY= 1.193392225685616E-03 VZ= 5.598574899924579E-04
2471720.500000000 = A.D. 2055-Mar-29 00:00:00.0000 TDB 
 X = 1.216911398792899E+01 Y = 2.530620518644161E+01 Z = 1.005483759829478E+01
 VX=-2.877664506620680E-03 VY= 1.178962222168304E-03 VZ= 5.542803194483832E-04
2471770.500000000 = A.D. 2055-May-18 00:00:00.0000 TDB 
 X = 1.202508219941263E+01 Y = 2.536482866527562E+01 Z = 1.008241960140776E+01
 VX=-2.883565752941566E-03 VY= 1.165978912517137E-03 VZ= 5.489447707872799E-04
2471820.500000000 = A.D. 2055-Jul-07 00:00:00.0000 TDB 
 X = 1.188071783045347E+01 Y = 2.542276913814299E+01 Z = 1.010972917376636E+01
 VX=-2.891042444500727E-03 VY= 1.151657404767831E-03 VZ= 5.435006030725814E-04
2471870.500000000 = A.D. 2055-Aug-26 00:00:00.0000 TDB 
 X = 1.173601732191247E+01 Y = 2.548002829211529E+01 Z = 1.013677046118831E+01
 VX=-2.896970874819598E-03 VY= 1.138680127294476E-03 VZ= 5.380866329931132E-04
2471920.500000000 = A.D. 2055-Oct-15 00:00:00.0000 TDB 
 X = 1.159097961359995E+01 Y = 2.553660078608084E+01 Z = 1.016353814478114E+01
 VX=-2.904537395931124E-03 VY= 1.124209667910014E-03 VZ= 5.326671393242767E-04
2471970.500000000 = A.D. 2055-Dec-04 00:00:00.0000 TDB 
 X = 1.144560765305142E+01 Y = 2.559248112329695E+01 Z = 1.019003273622121E+01
 VX=-2.910307831051776E-03 VY= 1.110978175003862E-03 VZ= 5.270546011467959E-04
2472020.500000000 = A.D. 2056-Jan-23 00:00:00.0000 TDB 
 X = 1.129990893717062E+01 Y = 2.564766627899762E+01 Z = 1.021624971034958E+01
 VX=-2.917630552796037E-03 VY= 1.096457687211384E-03 VZ= 5.216860400096529E-04
2472070.500000000 = A.D. 2056-Mar-13 00:00:00.0000 TDB 
 X = 1.115388690767633E+01 Y = 2.570215926350731E+01 Z = 1.024219335328211E+01
 VX=-2.923254467596381E-03 VY= 1.083233401266129E-03 VZ= 5.160005897470196E-04
2472120.500000000 = A.D. 2056-May-02 00:00:00.0000 TDB 
 X = 1.100754087409849E+01 Y = 2.575595788007591E+01 Z = 1.026786009569582E+01
 VX=-2.930580782626024E-03 VY= 1.068727858287115E-03 VZ= 5.107222953047436E-04
2472170.500000000 = A.D. 2056-Jun-21 00:00:00.0000 TDB 
 X = 1.086087185357673E+01 Y = 2.580906000567223E+01 Z = 1.029325176841007E+01
 VX=-2.936168491997113E-03 VY= 1.055312105555534E-03 VZ= 5.048791140896740E-04
2472220.500000000 = A.D. 2056-Aug-10 00:00:00.0000 TDB 
 X = 1.071388377935892E+01 Y = 2.586146040774630E+01 Z = 1.031836314582172E+01
 VX=-2.943339794528327E-03 VY= 1.040745291987129E-03 VZ= 4.996373827910435E-04
2472270.500000000 = A.D. 2056-Sep-29 00:00:00.0000 TDB 
 X = 1.056657986839068E+01 Y = 2.591316133214063E+01 Z = 1.034319771425164E+01
 VX=-2.948827579962066E-03 VY= 1.027245910978851E-03 VZ= 4.936844056496778E-04
2472320.500000000 = A.D. 2056-Nov-18 00:00:00.0000 TDB 
 X = 1.041895903962304E+01 Y = 2.596415851329967E+01 Z = 1.036775128509103E+01
 VX=-2.956002389238234E-03 VY= 1.012658536073761E-03 VZ= 4.885068653156552E-04
2472370.500000000 = A.D. 2057-Jan-07 00:00:00.0000 TDB 
 X = 1.027102197811064E+01 Y = 2.601444825029181E+01 Z = 1.039202480655562E+01
 VX=-2.961462245587723E-03 VY= 9.988663277735032E-04 VZ= 4.823666833211321E-04
2472420.500000000 = A.D. 2057-Feb-26 00:00:00.0000 TDB 
 X = 1.012277463958345E+01 Y = 2.606402201754121E+01 Z = 1.041601209742806E+01
 VX=-2.968394336752936E-03 VY= 9.841231164705591E-04 VZ= 4.771766686452352E-04
2472470.500000000 = A.D. 2057-Apr-17 00:00:00.0000 TDB 
 X = 9.974225091878651E+00 Y = 2.611288158120296E+01 Z = 1.043971584726931E+01
 VX=-2.973587787762506E-03 VY= 9.702311951100079E-04 VZ= 4.709272804296305E-04
2472520.500000000 = A.D. 2057-Jun-06 00:00:00.0000 TDB 
 X = 9.825375182150344E+00 Y = 2.616102676010950E+01 Z = 1.046313402197265E+01
 VX=-2.980406299200026E-03 VY= 9.556086174669187E-04 VZ= 4.658459974762916E-04
2472570.500000000 = A.D. 2057-Jul-26 00:00:00.0000 TDB 
 X = 9.676223537160574E+00 Y = 2.620845773358226E+01 Z = 1.048626874967290E+01
 VX=-2.985675326127311E-03 VY= 9.415698983425283E-04 VZ= 4.594886074527598E-04
2472620.500000000 = A.D. 2057-Sep-14 00:00:00.0000 TDB 
 X = 9.526769883311504E+00 Y = 2.625516564880456E+01 Z = 1.050911447281222E+01
 VX=-2.992429062568787E-03 VY= 9.267632099270783E-04 VZ= 4.543722097404868E-04
2472670.500000000 = A.D. 2057-Nov-03 00:00:00.0000 TDB 
 X = 9.377021406681166E+00 Y = 2.630114695160394E+01 Z = 1.053167087149663E+01
 VX=-2.997516489714953E-03 VY= 9.124448059386585E-04 VZ= 4.478415056828089E-04
2472720.500000000 = A.D. 2057-Dec-23 00:00:00.0000 TDB 
 X = 9.226982429948553E+00 Y = 2.634639755611520E+01 Z = 1.055393471344224E+01
 VX=-3.004004335722026E-03 VY= 8.976144342635823E-04 VZ= 4.427478693065920E-04
